[
    {
        "Altitude(m)": 576848.9506564862,
        "Argument of Periapsis(deg)": -0.03013754771062987,
        "Eccentricity": 0.0,
        "Inclination(deg)": 97.0,
        "Latitude(deg)": 81.29941602771243,
        "Longitude(deg)": -66.07409509046947,
        "Mean Anomaly(deg)": 84.77759102558333,
        "RAAN(deg)": 90.0079294048247,
        "Satellite Name": "Starlink Shell 3 1764",
        "Satellite Number": 1764,
        "Semi-Major Axis(m)": 6938478.169268562,
        "Time(s)": 760
    },
    {
        "Altitude(m)": 576875.5710068066,
        "Argument of Periapsis(deg)": -0.030534094391032898,
        "Eccentricity": 0.0,
        "Inclination(deg)": 97.0,
        "Latitude(deg)": 81.65703482813214,
        "Longitude(deg)": -69.555799466224,
        "Mean Anomaly(deg)": 85.40306722328836,
        "RAAN(deg)": 90.00803373909869,
        "Satellite Name": "Starlink Shell 3 1764",
        "Satellite Number": 1764,
        "Semi-Major Axis(m)": 6938478.169268562,
        "Time(s)": 770
    },
    {
        "Altitude(m)": 576898.8648760237,
        "Argument of Periapsis(deg)": -0.030930641071435925,
        "Eccentricity": 0.0,
        "Inclination(deg)": 97.0,
        "Latitude(deg)": 81.98243423415143,
        "Longitude(deg)": -73.32871468932943,
        "Mean Anomaly(deg)": 86.0285434209934,
        "RAAN(deg)": 90.0081380733727,
        "Satellite Name": "Starlink Shell 3 1764",
        "Satellite Number": 1764,
        "Semi-Major Axis(m)": 6938478.169268562,
        "Time(s)": 780
    },
    {
        "Altitude(m)": 576918.8191721027,
        "Argument of Periapsis(deg)": -0.031327187751838945,
        "Eccentricity": 0.0,
        "Inclination(deg)": 97.0,
        "Latitude(deg)": 82.27154704917626,
        "Longitude(deg)": -77.39668762481527,
        "Mean Anomaly(deg)": 86.65401961869844,
        "RAAN(deg)": 90.0082424076467,
        "Satellite Name": "Starlink Shell 3 1764",
        "Satellite Number": 1764,
        "Semi-Major Axis(m)": 6938478.169268562,
        "Time(s)": 790
    },
    {
        "Altitude(m)": 576935.422687106,
        "Argument of Periapsis(deg)": -0.031723734432241975,
        "Eccentricity": 0.0,
        "Inclination(deg)": 97.0,
        "Latitude(deg)": 82.52016757565792,
        "Longitude(deg)": -81.75275056121997,
        "Mean Anomaly(deg)": 87.27949581640351,
        "RAAN(deg)": 90.0083467419207,
        "Satellite Name": "Starlink Shell 3 1764",
        "Satellite Number": 1764,
        "Semi-Major Axis(m)": 6938478.169268562,
        "Time(s)": 800
    },
    {
        "Altitude(m)": 576948.6661024707,
        "Argument of Periapsis(deg)": -0.032120281112645,
        "Eccentricity": 0.0,
        "Inclination(deg)": 97.0,
        "Latitude(deg)": 82.72414639729854,
        "Longitude(deg)": -86.37610965992252,
        "Mean Anomaly(deg)": 87.90497201410852,
        "RAAN(deg)": 90.00845107619473,
        "Satellite Name": "Starlink Shell 3 1764",
        "Satellite Number": 1764,
        "Semi-Major Axis(m)": 6938478.169268562,
        "Time(s)": 810
    },
    {
        "Altitude(m)": 576958.5419933682,
        "Argument of Periapsis(deg)": -0.03251682779304802,
        "Eccentricity": 0.0,
        "Inclination(deg)": 97.0,
        "Latitude(deg)": 82.87964809511749,
        "Longitude(deg)": -91.2299817665997,
        "Mean Anomaly(deg)": 88.53044821181358,
        "RAAN(deg)": 90.00855541046873,
        "Satellite Name": "Starlink Shell 3 1764",
        "Satellite Number": 1764,
        "Semi-Major Axis(m)": 6938478.169268562,
        "Time(s)": 820
    },
    {
        "Altitude(m)": 576965.0448321584,
        "Argument of Periapsis(deg)": -0.032913374473451044,
        "Eccentricity": 0.0,
        "Inclination(deg)": 97.0,
        "Latitude(deg)": 82.98345052761806,
        "Longitude(deg)": -96.26116156759171,
        "Mean Anomaly(deg)": 89.15592440951865,
        "RAAN(deg)": 90.00865974474274,
        "Satellite Name": "Starlink Shell 3 1764",
        "Satellite Number": 1764,
        "Semi-Major Axis(m)": 6938478.169268562,
        "Time(s)": 830
    },
    {
        "Altitude(m)": 576968.170990999,
        "Argument of Periapsis(deg)": -0.03330992115385407,
        "Eccentricity": 0.0,
        "Inclination(deg)": 97.0,
        "Latitude(deg)": 83.03324350735836,
        "Longitude(deg)": -101.40205096774457,
        "Mean Anomaly(deg)": 89.78140060722367,
        "RAAN(deg)": 90.00876407901674,
        "Satellite Name": "Starlink Shell 3 1764",
        "Satellite Number": 1764,
        "Semi-Major Axis(m)": 6938478.169268562,
        "Time(s)": 840
    },
    {
        "Altitude(m)": 576967.9187435247,
        "Argument of Periapsis(deg)": -0.0337064678342571,
        "Eccentricity": 0.0,
        "Inclination(deg)": 97.0,
        "Latitude(deg)": 83.02787030262242,
        "Longitude(deg)": -106.5753461500743,
        "Mean Anomaly(deg)": 90.40687680492869,
        "RAAN(deg)": 90.00886841329077,
        "Satellite Name": "Starlink Shell 3 1764",
        "Satellite Number": 1764,
        "Semi-Major Axis(m)": 6938478.169268562,
        "Time(s)": 850
    },
    {
        "Altitude(m)": 576964.2882656564,
        "Argument of Periapsis(deg)": -0.03410301451466012,
        "Eccentricity": 0.0,
        "Inclination(deg)": 97.0,
        "Latitude(deg)": 82.96745730917812,
        "Longitude(deg)": -111.700757363021,
        "Mean Anomaly(deg)": 91.03235300263377,
        "RAAN(deg)": 90.00897274756477,
        "Satellite Name": "Starlink Shell 3 1764",
        "Satellite Number": 1764,
        "Semi-Major Axis(m)": 6938478.169268562,
        "Time(s)": 860
    },
    {
        "Altitude(m)": 576957.2816355254,
        "Argument of Periapsis(deg)": -0.034499561195063144,
        "Eccentricity": 0.0,
        "Inclination(deg)": 97.0,
        "Latitude(deg)": 82.85339959455409,
        "Longitude(deg)": -116.70238786405052,
        "Mean Anomaly(deg)": 91.65782920033881,
        "RAAN(deg)": 90.00907708183877,
        "Satellite Name": "Starlink Shell 3 1764",
        "Satellite Number": 1764,
        "Semi-Major Axis(m)": 6938478.169268562,
        "Time(s)": 870
    },
    {
        "Altitude(m)": 576946.9028324693,
        "Argument of Periapsis(deg)": -0.03489610787546617,
        "Eccentricity": 0.0,
        "Inclination(deg)": 97.0,
        "Latitude(deg)": 82.68820601244008,
        "Longitude(deg)": -121.51514785798432,
        "Mean Anomaly(deg)": 92.28330539804384,
        "RAAN(deg)": 90.0091814161128,
        "Satellite Name": "Starlink Shell 3 1764",
        "Satellite Number": 1764,
        "Semi-Major Axis(m)": 6938478.169268562,
        "Time(s)": 880
    },
    {
        "Altitude(m)": 576933.1577352021,
        "Argument of Periapsis(deg)": -0.0352926545558692,
        "Eccentricity": 0.0,
        "Inclination(deg)": 97.0,
        "Latitude(deg)": 82.4752419678034,
        "Longitude(deg)": -126.08894714867256,
        "Mean Anomaly(deg)": 92.90878159574889,
        "RAAN(deg)": 90.0092857503868,
        "Satellite Name": "Starlink Shell 3 1764",
        "Satellite Number": 1764,
        "Semi-Major Axis(m)": 6938478.169268562,
        "Time(s)": 890
    },
    {
        "Altitude(m)": 576916.0541190244,
        "Argument of Periapsis(deg)": -0.035689201236272214,
        "Eccentricity": 0.0,
        "Inclination(deg)": 97.0,
        "Latitude(deg)": 82.21842646965811,
        "Longitude(deg)": -130.39020847858566,
        "Mean Anomaly(deg)": 93.53425779345393,
        "RAAN(deg)": 90.00939008466081,
        "Satellite Name": "Starlink Shell 3 1764",
        "Satellite Number": 1764,
        "Semi-Major Axis(m)": 6938478.169268562,
        "Time(s)": 900
    },
    {
        "Altitude(m)": 576895.601652206,
        "Argument of Periapsis(deg)": -0.036085747916675244,
        "Eccentricity": 0.0,
        "Inclination(deg)": 97.0,
        "Latitude(deg)": 81.92193824783912,
        "Longitude(deg)": -134.40103142200468,
        "Mean Anomaly(deg)": 94.15973399115899,
        "RAAN(deg)": 90.0094944189348,
        "Satellite Name": "Starlink Shell 3 1764",
        "Satellite Number": 1764,
        "Semi-Major Axis(m)": 6938478.169268562,
        "Time(s)": 910
    },
    {
        "Altitude(m)": 576871.8118914291,
        "Argument of Periapsis(deg)": -0.03648229459707827,
        "Eccentricity": 0.0,
        "Inclination(deg)": 97.0,
        "Latitude(deg)": 81.58996923612862,
        "Longitude(deg)": -138.11679707195353,
        "Mean Anomaly(deg)": 94.785210188864,
        "RAAN(deg)": 90.0095987532088,
        "Satellite Name": "Starlink Shell 3 1764",
        "Satellite Number": 1764,
        "Semi-Major Axis(m)": 6938478.169268562,
        "Time(s)": 920
    },
    {
        "Altitude(m)": 576844.6982763887,
        "Argument of Periapsis(deg)": -0.0368788412774813,
        "Eccentricity": 0.0,
        "Inclination(deg)": 97.0,
        "Latitude(deg)": 81.22654283231333,
        "Longitude(deg)": -141.54308424812572,
        "Mean Anomaly(deg)": 95.41068638656905,
        "RAAN(deg)": 90.00970308748283,
        "Satellite Name": "Starlink Shell 3 1764",
        "Satellite Number": 1764,
        "Semi-Major Axis(m)": 6938478.169268562,
        "Time(s)": 930
    },
    {
        "Altitude(m)": 576814.2761234782,
        "Argument of Periapsis(deg)": -0.037275387957884314,
        "Eccentricity": 0.0,
        "Inclination(deg)": 97.0,
        "Latitude(deg)": 80.8353971199468,
        "Longitude(deg)": -144.69258176477607,
        "Mean Anomaly(deg)": 96.0361625842741,
        "RAAN(deg)": 90.00980742175683,
        "Satellite Name": "Starlink Shell 3 1764",
        "Satellite Number": 1764,
        "Semi-Major Axis(m)": 6938478.169268562,
        "Time(s)": 940
    }
]